ONEWEB-0053             
1 45157U 20008AC  23337.60176573  .00000498  00000+0  13894-2 0  9992
2 45157  87.8918 220.3147 0001558  69.5848 290.5446 13.10370942186569
ONEWEB-0054             
1 45158U 20008AD  23337.17933792 -.00000439  00000+0 -12945-2 0  9992
2 45158  87.8923 220.3837 0001551  73.1846 286.9451 13.10371609186627
ONEWEB-0056             
1 45159U 20008AE  23337.61800446 -.00000310  00000+0 -92443-3 0  9991
2 45159  87.8917 220.2916 0001516  64.9179 295.2105 13.10367871186834
ONEWEB-0057             
1 45160U 20008AF  23337.24270626 -.00000534  00000+0 -15668-2 0  9994
2 45160  87.8922 220.3611 0001400  66.5896 293.5379 13.10373544186952
ONEWEB-0058             
1 45161U 20008AG  23337.61165935  .00000168  00000+0  44394-3 0  9992
2 45161  87.8921 220.3352 0001460  76.6497 283.4793 13.10366840187072
ONEWEB-0059             
1 45162U 20008AH  23337.60825151 -.00007828  00000+0 -22469-1 0  9994
2 45162  87.8918 220.3061 0001560  75.1028 285.0272 13.10410218186978
ONEWEB-0062             
1 45163U 20008AJ  23337.17772430 -.00000545  00000+0 -15971-2 0  9998
2 45163  87.8922 220.3779 0001670  66.0807 294.0495 13.10375980186788
ONEWEB-0065             
1 45164U 20008AK  23337.61312918 -.00000049  00000+0 -17665-3 0  9991
2 45164  87.8922 220.2897 0001498  68.6269 291.5018 13.10369246186531
